[{"OBJECT_NAME":"ONEWEB-0228","OBJECT_ID":"2021-045P","EPOCH":"2025-08-24T05:50:30.798528","MEAN_MOTION":13.15549621,"ECCENTRICITY":0.00018875,"INCLINATION":87.9073,"RA_OF_ASC_NODE":318.4017,"ARG_OF_PERICENTER":94.6324,"MEAN_ANOMALY":265.5022,"EPHEMERIS_TYPE":0,"CLASSIFICATION_TYPE":"U","NORAD_CAT_ID":48780,"ELEMENT_SET_NO":999,"REV_AT_EPOCH":20528,"BSTAR":7.2255964e-5,"MEAN_MOTION_DOT":4.0e-7,"MEAN_MOTION_DDOT":0},{"OBJECT_NAME":"ONEWEB-0232","OBJECT_ID":"2021-045Q","EPOCH":"2025-08-24T14:21:25.196256","MEAN_MOTION":13.15548711,"ECCENTRICITY":0.00019049,"INCLINATION":87.9066,"RA_OF_ASC_NODE":318.3247,"ARG_OF_PERICENTER":97.5843,"MEAN_ANOMALY":262.5504,"EPHEMERIS_TYPE":0,"CLASSIFICATION_TYPE":"U","NORAD_CAT_ID":48781,"ELEMENT_SET_NO":999,"REV_AT_EPOCH":20565,"BSTAR":0.00020976731,"MEAN_MOTION_DOT":9.2e-7,"MEAN_MOTION_DDOT":0},{"OBJECT_NAME":"ONEWEB-0231","OBJECT_ID":"2021-045R","EPOCH":"2025-08-24T11:59:56.500800","MEAN_MOTION":13.15548337,"ECCENTRICITY":0.00018809,"INCLINATION":87.906,"RA_OF_ASC_NODE":318.3968,"ARG_OF_PERICENTER":89.4777,"MEAN_ANOMALY":270.6569,"EPHEMERIS_TYPE":0,"CLASSIFICATION_TYPE":"U","NORAD_CAT_ID":48782,"ELEMENT_SET_NO":999,"REV_AT_EPOCH":20533,"BSTAR":0.00021838703,"MEAN_MOTION_DOT":9.5e-7,"MEAN_MOTION_DDOT":0},{"OBJECT_NAME":"ONEWEB-0234","OBJECT_ID":"2021-045S","EPOCH":"2025-08-24T11:05:00.643200","MEAN_MOTION":13.15547038,"ECCENTRICITY":0.00017504,"INCLINATION":87.907,"RA_OF_ASC_NODE":318.3723,"ARG_OF_PERICENTER":126.7871,"MEAN_ANOMALY":233.342,"EPHEMERIS_TYPE":0,"CLASSIFICATION_TYPE":"U","NORAD_CAT_ID":48783,"ELEMENT_SET_NO":999,"REV_AT_EPOCH":20546,"BSTAR":0.00023287374,"MEAN_MOTION_DOT":1.0e-6,"MEAN_MOTION_DDOT":0},{"OBJECT_NAME":"ONEWEB-0238","OBJECT_ID":"2021-045T","EPOCH":"2025-08-24T11:05:23.708544","MEAN_MOTION":13.15547715,"ECCENTRICITY":0.0001834,"INCLINATION":87.9065,"RA_OF_ASC_NODE":318.3688,"ARG_OF_PERICENTER":109.6412,"MEAN_ANOMALY":250.4916,"EPHEMERIS_TYPE":0,"CLASSIFICATION_TYPE":"U","NORAD_CAT_ID":48784,"ELEMENT_SET_NO":999,"REV_AT_EPOCH":20536,"BSTAR":0.00023721252,"MEAN_MOTION_DOT":1.02e-6,"MEAN_MOTION_DDOT":0},{"OBJECT_NAME":"ONEWEB-0240","OBJECT_ID":"2021-045U","EPOCH":"2025-08-24T06:07:24.208320","MEAN_MOTION":13.1554699,"ECCENTRICITY":0.00015835,"INCLINATION":87.907,"RA_OF_ASC_NODE":318.3933,"ARG_OF_PERICENTER":94.7364,"MEAN_ANOMALY":265.3948,"EPHEMERIS_TYPE":0,"CLASSIFICATION_TYPE":"U","NORAD_CAT_ID":48785,"ELEMENT_SET_NO":999,"REV_AT_EPOCH":20536,"BSTAR":-0.00016788105,"MEAN_MOTION_DOT":-5.0e-7,"MEAN_MOTION_DDOT":0},{"OBJECT_NAME":"ONEWEB-0246","OBJECT_ID":"2021-045V","EPOCH":"2025-08-24T13:17:31.498656","MEAN_MOTION":13.15546512,"ECCENTRICITY":0.00020418,"INCLINATION":87.9075,"RA_OF_ASC_NODE":318.3455,"ARG_OF_PERICENTER":93.1223,"MEAN_ANOMALY":267.0141,"EPHEMERIS_TYPE":0,"CLASSIFICATION_TYPE":"U","NORAD_CAT_ID":48786,"ELEMENT_SET_NO":999,"REV_AT_EPOCH":20527,"BSTAR":5.9279914e-5,"MEAN_MOTION_DOT":3.5e-7,"MEAN_MOTION_DDOT":0},{"OBJECT_NAME":"ONEWEB-0210","OBJECT_ID":"2021-045W","EPOCH":"2025-08-24T14:30:32.440032","MEAN_MOTION":13.15548253,"ECCENTRICITY":0.00020531,"INCLINATION":87.9074,"RA_OF_ASC_NODE":318.3355,"ARG_OF_PERICENTER":78.7993,"MEAN_ANOMALY":281.3368,"EPHEMERIS_TYPE":0,"CLASSIFICATION_TYPE":"U","NORAD_CAT_ID":48787,"ELEMENT_SET_NO":999,"REV_AT_EPOCH":20532,"BSTAR":0.00011448962,"MEAN_MOTION_DOT":5.6e-7,"MEAN_MOTION_DDOT":0},{"OBJECT_NAME":"ONEWEB-0214","OBJECT_ID":"2021-045X","EPOCH":"2025-08-24T11:04:02.680896","MEAN_MOTION":13.15550942,"ECCENTRICITY":0.00021502,"INCLINATION":87.9073,"RA_OF_ASC_NODE":318.3522,"ARG_OF_PERICENTER":86.6697,"MEAN_ANOMALY":273.4679,"EPHEMERIS_TYPE":0,"CLASSIFICATION_TYPE":"U","NORAD_CAT_ID":48788,"ELEMENT_SET_NO":999,"REV_AT_EPOCH":20527,"BSTAR":0.00032599909,"MEAN_MOTION_DOT":1.36e-6,"MEAN_MOTION_DDOT":0},{"OBJECT_NAME":"ONEWEB-0221","OBJECT_ID":"2021-045Y","EPOCH":"2025-08-24T05:45:45.605088","MEAN_MOTION":13.15549207,"ECCENTRICITY":0.00018231,"INCLINATION":87.9064,"RA_OF_ASC_NODE":318.4233,"ARG_OF_PERICENTER":92.7069,"MEAN_ANOMALY":267.427,"EPHEMERIS_TYPE":0,"CLASSIFICATION_TYPE":"U","NORAD_CAT_ID":48789,"ELEMENT_SET_NO":999,"REV_AT_EPOCH":20533,"BSTAR":0.00012647324,"MEAN_MOTION_DOT":6.0e-7,"MEAN_MOTION_DDOT":0},{"OBJECT_NAME":"ONEWEB-0213","OBJECT_ID":"2021-045Z","EPOCH":"2025-08-24T14:37:23.558016","MEAN_MOTION":13.15547801,"ECCENTRICITY":0.000186,"INCLINATION":87.9067,"RA_OF_ASC_NODE":318.3582,"ARG_OF_PERICENTER":90.2719,"MEAN_ANOMALY":269.8625,"EPHEMERIS_TYPE":0,"CLASSIFICATION_TYPE":"U","NORAD_CAT_ID":48790,"ELEMENT_SET_NO":999,"REV_AT_EPOCH":20544,"BSTAR":9.6663638e-5,"MEAN_MOTION_DOT":4.9e-7,"MEAN_MOTION_DDOT":0},{"OBJECT_NAME":"ONEWEB-0212","OBJECT_ID":"2021-045AA","EPOCH":"2025-08-24T14:04:17.849280","MEAN_MOTION":13.15547983,"ECCENTRICITY":0.00018955,"INCLINATION":87.9067,"RA_OF_ASC_NODE":318.3449,"ARG_OF_PERICENTER":99.6559,"MEAN_ANOMALY":260.4786,"EPHEMERIS_TYPE":0,"CLASSIFICATION_TYPE":"U","NORAD_CAT_ID":48791,"ELEMENT_SET_NO":999,"REV_AT_EPOCH":20543,"BSTAR":0.00020285382,"MEAN_MOTION_DOT":8.9e-7,"MEAN_MOTION_DDOT":0},{"OBJECT_NAME":"ONEWEB-0227","OBJECT_ID":"2021-045AB","EPOCH":"2025-08-24T14:03:09.302976","MEAN_MOTION":13.15547852,"ECCENTRICITY":0.00018253,"INCLINATION":87.906,"RA_OF_ASC_NODE":318.3645,"ARG_OF_PERICENTER":95.4709,"MEAN_ANOMALY":264.6629,"EPHEMERIS_TYPE":0,"CLASSIFICATION_TYPE":"U","NORAD_CAT_ID":48792,"ELEMENT_SET_NO":999,"REV_AT_EPOCH":20538,"BSTAR":0.00014579647,"MEAN_MOTION_DOT":6.8e-7,"MEAN_MOTION_DDOT":0},{"OBJECT_NAME":"ONEWEB-0226","OBJECT_ID":"2021-045AC","EPOCH":"2025-08-24T04:46:24.915936","MEAN_MOTION":13.15548579,"ECCENTRICITY":0.00019197,"INCLINATION":87.9067,"RA_OF_ASC_NODE":318.4475,"ARG_OF_PERICENTER":87.8669,"MEAN_ANOMALY":272.2681,"EPHEMERIS_TYPE":0,"CLASSIFICATION_TYPE":"U","NORAD_CAT_ID":48793,"ELEMENT_SET_NO":999,"REV_AT_EPOCH":20530,"BSTAR":-0.00072199824,"MEAN_MOTION_DOT":-2.59e-6,"MEAN_MOTION_DDOT":0},{"OBJECT_NAME":"ONEWEB-0224","OBJECT_ID":"2021-045AD","EPOCH":"2025-08-24T05:43:27.734016","MEAN_MOTION":13.15548112,"ECCENTRICITY":9.658e-5,"INCLINATION":87.9069,"RA_OF_ASC_NODE":318.4754,"ARG_OF_PERICENTER":110.3667,"MEAN_ANOMALY":249.7567,"EPHEMERIS_TYPE":0,"CLASSIFICATION_TYPE":"U","NORAD_CAT_ID":48794,"ELEMENT_SET_NO":999,"REV_AT_EPOCH":20523,"BSTAR":0.00047065993,"MEAN_MOTION_DOT":1.9e-6,"MEAN_MOTION_DDOT":0},{"OBJECT_NAME":"ONEWEB-0233","OBJECT_ID":"2021-045AE","EPOCH":"2025-08-24T13:08:13.098912","MEAN_MOTION":13.15554805,"ECCENTRICITY":0.00016615,"INCLINATION":87.9074,"RA_OF_ASC_NODE":318.4241,"ARG_OF_PERICENTER":91.5808,"MEAN_ANOMALY":268.5512,"EPHEMERIS_TYPE":0,"CLASSIFICATION_TYPE":"U","NORAD_CAT_ID":48795,"ELEMENT_SET_NO":999,"REV_AT_EPOCH":20529,"BSTAR":0.001571773,"MEAN_MOTION_DOT":6.05e-6,"MEAN_MOTION_DDOT":0},{"OBJECT_NAME":"ONEWEB-0190","OBJECT_ID":"2021-045AF","EPOCH":"2025-08-24T14:39:41.095584","MEAN_MOTION":13.1554866,"ECCENTRICITY":0.00016623,"INCLINATION":87.9073,"RA_OF_ASC_NODE":318.3754,"ARG_OF_PERICENTER":73.4411,"MEAN_ANOMALY":286.6902,"EPHEMERIS_TYPE":0,"CLASSIFICATION_TYPE":"U","NORAD_CAT_ID":48796,"ELEMENT_SET_NO":999,"REV_AT_EPOCH":20537,"BSTAR":0.00042859329,"MEAN_MOTION_DOT":1.74e-6,"MEAN_MOTION_DDOT":0}]
