ONEWEB-0228             
1 48780U 21045P   25236.24341202  .00000040  00000+0  72256-4 0  9994
2 48780  87.9073 318.4017 0001887  94.6324 265.5022 13.15549621205285
ONEWEB-0232             
1 48781U 21045Q   25236.59820829  .00000092  00000+0  20977-3 0  9999
2 48781  87.9066 318.3247 0001904  97.5843 262.5504 13.15548711205652
ONEWEB-0231             
1 48782U 21045R   25236.49995950  .00000095  00000+0  21839-3 0  9998
2 48782  87.9060 318.3968 0001880  89.4777 270.6569 13.15548337205336
ONEWEB-0234             
1 48783U 21045S   25236.46181300  .00000100  00000+0  23287-3 0  9998
2 48783  87.9070 318.3723 0001750 126.7871 233.3420 13.15547038205466
ONEWEB-0238             
1 48784U 21045T   25236.46207996  .00000102  00000+0  23721-3 0  9994
2 48784  87.9065 318.3688 0001834 109.6412 250.4916 13.15547715205366
ONEWEB-0240             
1 48785U 21045U   25236.25514130 -.00000050  00000+0 -16788-3 0  9992
2 48785  87.9070 318.3933 0001583  94.7364 265.3948 13.15546990205361
ONEWEB-0246             
1 48786U 21045V   25236.55383679  .00000035  00000+0  59280-4 0  9994
2 48786  87.9075 318.3455 0002041  93.1223 267.0141 13.15546512205277
ONEWEB-0210             
1 48787U 21045W   25236.60454213  .00000056  00000+0  11449-3 0  9991
2 48787  87.9074 318.3355 0002053  78.7993 281.3368 13.15548253205322
ONEWEB-0214             
1 48788U 21045X   25236.46114214  .00000136  00000+0  32600-3 0  9991
2 48788  87.9073 318.3522 0002150  86.6697 273.4679 13.15550942205274
ONEWEB-0221             
1 48789U 21045Y   25236.24011117  .00000060  00000+0  12647-3 0  9991
2 48789  87.9064 318.4233 0001823  92.7069 267.4270 13.15549207205331
ONEWEB-0213             
1 48790U 21045Z   25236.60930044  .00000049  00000+0  96664-4 0  9991
2 48790  87.9067 318.3582 0001860  90.2719 269.8625 13.15547801205448
ONEWEB-0212             
1 48791U 21045AA  25236.58631770  .00000089  00000+0  20285-3 0  9992
2 48791  87.9067 318.3449 0001895  99.6559 260.4786 13.15547983205439
ONEWEB-0227             
1 48792U 21045AB  25236.58552434  .00000068  00000+0  14580-3 0  9990
2 48792  87.9060 318.3645 0001825  95.4709 264.6629 13.15547852205386
ONEWEB-0226             
1 48793U 21045AC  25236.19889949 -.00000259  00000+0 -72200-3 0  9999
2 48793  87.9067 318.4475 0001919  87.8669 272.2681 13.15548579205302
ONEWEB-0224             
1 48794U 21045AD  25236.23851544  .00000190  00000+0  47066-3 0  9999
2 48794  87.9069 318.4754 0000965 110.3667 249.7567 13.15548112205232
ONEWEB-0233             
1 48795U 21045AE  25236.54737383  .00000605  00000+0  15718-2 0  9997
2 48795  87.9074 318.4241 0001661  91.5808 268.5512 13.15554805205292
ONEWEB-0190             
1 48796U 21045AF  25236.61089231  .00000174  00000+0  42859-3 0  9996
2 48796  87.9073 318.3754 0001662  73.4411 286.6902 13.15548660205375
